[{"OBJECT_NAME":"SHIYAN-20C (SY-20C)","OBJECT_ID":"2022-142A","EPOCH":"2026-03-09T23:50:52.089216","MEAN_MOTION":14.29489925,"ECCENTRICITY":0.00131159,"INCLINATION":59.9943,"RA_OF_ASC_NODE":268.1651,"ARG_OF_PERICENTER":188.0899,"MEAN_ANOMALY":171.9927,"EPHEMERIS_TYPE":0,"CLASSIFICATION_TYPE":"U","NORAD_CAT_ID":54214,"ELEMENT_SET_NO":999,"REV_AT_EPOCH":17551,"BSTAR":7.6576353e-5,"MEAN_MOTION_DOT":6.0e-7,"MEAN_MOTION_DDOT":0},{"OBJECT_NAME":"RADARSAT-1","OBJECT_ID":"1995-059A","EPOCH":"2026-03-09T21:39:45.079776","MEAN_MOTION":14.32349306,"ECCENTRICITY":0.00010659,"INCLINATION":98.5507,"RA_OF_ASC_NODE":79.258,"ARG_OF_PERICENTER":74.248,"MEAN_ANOMALY":285.8821,"EPHEMERIS_TYPE":0,"CLASSIFICATION_TYPE":"U","NORAD_CAT_ID":23710,"ELEMENT_SET_NO":999,"REV_AT_EPOCH":58413,"BSTAR":0.00014061132,"MEAN_MOTION_DOT":3.36e-6,"MEAN_MOTION_DDOT":0}]
